ORBCOMM FM115           
1 41186U 15081H   24277.16703644  .00004360  00000+0  90809-3 0  9999
2 41186  46.9975 181.0291 0000871 301.6621  58.4180 14.61332746470160
ORBCOMM FM108           
1 41187U 15081J   24277.21793558  .00004962  00000+0  11268-2 0  9998
2 41187  47.0031 239.7396 0002112 216.3606 143.7136 14.57105915469380
ORBCOMM FM117           
1 41188U 15081K   24277.18417366  .00004800  00000+0  10912-2 0  9991
2 41188  46.9992 238.7472 0002876 229.1480 130.9156 14.57108356469391
ORBCOMM FM116           
1 41189U 15081L   24276.41964990  .00005571  00000+0  12596-2 0  9993
2 41189  47.0020 332.1903 0003132 292.7867  67.2687 14.57135253468043
